CCSDS_OEM_VERS = 1.0
CREATION_DATE  = 2017-05-11T11:18:56
ORIGINATOR     = GMAT USER

META_START
OBJECT_NAME          = MOPSSat_alt_35785_km_RAAN_90_114
OBJECT_ID            = SatId
CENTER_NAME          = Earth
REF_FRAME            = EME2000
TIME_SYSTEM          = UTC
START_TIME           = 2017-01-01T00:00:00.000
USEABLE_START_TIME   = 2017-01-01T00:00:00.000
USEABLE_STOP_TIME    = 2017-01-02T00:00:00.000
STOP_TIME            = 2017-01-02T00:00:00.000
INTERPOLATION        = Lagrange
INTERPOLATION_DEGREE = 7 
META_STOP


                                                                                   

2017-01-01T00:00:00.000   2.065440305569960e-12   3.373120000000000e+04   0.000000000000000e+00  -3.765108229737190e+00   2.305463870995504e-16   6.572020861182902e-02
2017-01-01T00:00:10.000  -3.765107386791708e+01   3.373118248278588e+04   6.572020825394692e-01  -3.765106316694523e+00  -3.503443420021821e-03   6.572020393234468e-02
2017-01-01T00:00:20.000  -7.530211183057625e+01   3.373112993115227e+04   1.314403825515045e+00  -3.765100493030594e+00  -7.006881234803804e-03   6.572013100003925e-02
2017-01-01T00:00:30.000  -1.129530728162620e+02   3.373104234519097e+04   1.971604512090220e+00  -3.765090758762824e+00  -1.051030743992118e-02   6.571998981515602e-02
2017-01-01T00:00:40.000  -1.506039166789642e+02   3.373091972505125e+04   2.628803441586112e+00  -3.765077113919934e+00  -1.401371611712384e-02   6.571978037813631e-02
2017-01-01T00:00:50.000  -1.882546039034914e+02   3.373076207093951e+04   3.285999924334237e+00  -3.765059558541895e+00  -1.751710140691436e-02   6.571950268961836e-02
2017-01-01T00:01:00.000  -2.259050953696962e+02   3.373056938311920e+04   3.943193277561057e+00  -3.765038092679914e+00  -2.102045748662660e-02   6.571915675043676e-02
2017-01-01T00:01:10.000  -2.635553521700665e+02   3.373034166191083e+04   4.600382822203998e+00  -3.765012716396448e+00  -2.452377855347022e-02   6.571874256162279e-02
2017-01-01T00:01:20.000  -3.012053354749314e+02   3.373007890769230e+04   5.257567880558634e+00  -3.764983429765226e+00  -2.802705881200602e-02   6.571826012440443e-02
2017-01-01T00:01:30.000  -3.388550064395372e+02   3.372978112089915e+04   5.914747774656688e+00  -3.764950232871277e+00  -3.153029246551754e-02   6.571770944020702e-02
2017-01-01T00:01:40.000  -3.765043261472468e+02   3.372944830202493e+04   6.571921825274552e+00  -3.764913125810986e+00  -3.503347371074383e-02   6.571709051065407e-02
2017-01-01T00:01:50.000  -4.141532555831130e+02   3.372908045162169e+04   7.229089351472020e+00  -3.764872108692137e+00  -3.853659673543879e-02   6.571640333756779e-02
2017-01-01T00:02:00.000  -4.518017556320800e+02   3.372867757030023e+04   7.886249670560896e+00  -3.764827181633939e+00  -4.203965571822222e-02   6.571564792297005e-02
2017-01-01T00:02:10.000  -4.894497870960668e+02   3.372823965873045e+04   8.543402098403165e+00  -3.764778344767067e+00  -4.554264483018769e-02   6.571482426908265e-02
2017-01-01T00:02:20.000  -5.270973107241840e+02   3.372776671764142e+04   9.200545949938443e+00  -3.764725598233670e+00  -4.904555823773248e-02   6.571393237832765e-02
2017-01-01T00:02:30.000  -5.647442872503364e+02   3.372725874782132e+04   9.857680539840334e+00  -3.764668942187365e+00  -5.254839010607476e-02   6.571297225332738e-02
2017-01-01T00:02:40.000  -6.023906774324670e+02   3.372671575011718e+04   1.051480518320143e+01  -3.764608376793205e+00  -5.605113460292323e-02   6.571194389690375e-02
2017-01-01T00:02:50.000  -6.400364420876906e+02   3.372613772543430e+04   1.117191919614660e+01  -3.764543902227605e+00  -5.955378590176435e-02   6.571084731207720e-02
2017-01-01T00:03:00.000  -6.776815421175768e+02   3.372552467473526e+04   1.182902189627427e+01  -3.764475518678255e+00  -6.305633818423237e-02   6.570968250206488e-02
2017-01-01T00:03:10.000  -7.153259385178267e+02   3.372487659903873e+04   1.248611260282535e+01  -3.764403226343966e+00  -6.655878564102730e-02   6.570844947027817e-02
2017-01-01T00:03:20.000  -7.529695923666033e+02   3.372419349941779e+04   1.314319063647962e+01  -3.764327025434473e+00  -7.006112247084614e-02   6.570714822031931e-02
2017-01-01T00:03:30.000  -7.906124647857639e+02   3.372347537699755e+04   1.380025531867899e+01  -3.764246916170209e+00  -7.356334287679253e-02   6.570577875597697e-02
2017-01-01T00:03:40.000  -8.282545168694892e+02   3.372272223298086e+04   1.445730597038150e+01  -3.764162898785119e+00  -7.706544105976487e-02   6.570434108127632e-02
2017-01-01T00:03:50.000  -8.658957095737928e+02   3.372193406861067e+04   1.511434191013306e+01  -3.764074973522490e+00  -8.056741120817565e-02   6.570283520040518e-02
2017-01-01T00:04:00.000  -9.035360035622308e+02   3.372111088519525e+04   1.577136245137403e+01  -3.763983140637771e+00  -8.406924748362310e-02   6.570126111776366e-02
2017-01-01T00:04:10.000  -9.411753602631275e+02   3.372025268410154e+04   1.642836692089332e+01  -3.763887400397815e+00  -8.757094411929311e-02   6.569961883795079e-02
2017-01-01T00:04:20.000  -9.788137400765920e+02   3.371935946676225e+04   1.708535462753158e+01  -3.763787753081662e+00  -9.107249525312716e-02   6.569790836577852e-02
2017-01-01T00:04:30.000  -1.016451103357191e+03   3.371843123467582e+04   1.774232487933389e+01  -3.763684198980561e+00  -9.457389501928884e-02   6.569612970627083e-02
2017-01-01T00:04:40.000  -1.054087410939959e+03   3.371746798938959e+04   1.839927699273139e+01  -3.763576738396058e+00  -9.807513759712123e-02   6.569428286463311e-02
2017-01-01T00:04:50.000  -1.091722624048483e+03   3.371646973249587e+04   1.905621029093696e+01  -3.763465371639579e+00  -1.015762172025912e-01   6.569236784624269e-02
2017-01-01T00:05:00.000  -1.129356703918065e+03   3.371543646564581e+04   1.971312409736738e+01  -3.763350099033972e+00  -1.050771280532649e-01   6.569038465667641e-02
2017-01-01T00:05:10.000  -1.166989611893178e+03   3.371436819054653e+04   2.037001773734443e+01  -3.763230920913176e+00  -1.085778643773905e-01   6.568833330170493e-02
2017-01-01T00:05:20.000  -1.204621308940019e+03   3.371326490897008e+04   2.102689052958646e+01  -3.763107837623230e+00  -1.120784203685627e-01   6.568621378730971e-02
2017-01-01T00:05:30.000  -1.242251756008652e+03   3.371212662274810e+04   2.168374179252956e+01  -3.762980849521670e+00  -1.155787902194378e-01   6.568402611967311e-02
2017-01-01T00:05:40.000  -1.279880914033045e+03   3.371095333376996e+04   2.234057084432834e+01  -3.762849956977315e+00  -1.190789681217520e-01   6.568177030517432e-02
2017-01-01T00:05:50.000  -1.317508743569543e+03   3.370974504399858e+04   2.299737699654519e+01  -3.762715160372042e+00  -1.225789482327195e-01   6.567944635042015e-02
2017-01-01T00:06:00.000  -1.355135205284156e+03   3.370850175545088e+04   2.365415956265622e+01  -3.762576460098596e+00  -1.260787247203688e-01   6.567705426220723e-02
2017-01-01T00:06:10.000  -1.392760259760733e+03   3.370722347020485e+04   2.431091785470282e+01  -3.762433856561374e+00  -1.295782917457192e-01   6.567459404753559e-02
2017-01-01T00:06:20.000  -1.430383868350157e+03   3.370591019037097e+04   2.496765119811455e+01  -3.762287350173241e+00  -1.330776435417851e-01   6.567206571355365e-02
2017-01-01T00:06:30.000  -1.468005992321362e+03   3.370456191812046e+04   2.562435891689000e+01  -3.762136941358674e+00  -1.365767743346267e-01   6.566946926761255e-02
2017-01-01T00:06:40.000  -1.505626593053441e+03   3.370317865567950e+04   2.628104033695003e+01  -3.761982630553119e+00  -1.400756783612386e-01   6.566680471725492e-02
2017-01-01T00:06:50.000  -1.543245631548324e+03   3.370176040534232e+04   2.693769477763141e+01  -3.761824418204453e+00  -1.435743498242319e-01   6.566407207024010e-02
2017-01-01T00:07:00.000  -1.580863068792834e+03   3.370030716946285e+04   2.759432155800664e+01  -3.761662304772037e+00  -1.470727829255380e-01   6.566127133452788e-02
2017-01-01T00:07:10.000  -1.618478865758720e+03   3.369881895045277e+04   2.825091999688448e+01  -3.761496290726510e+00  -1.505709718664246e-01   6.565840251827502e-02
2017-01-01T00:07:20.000  -1.656092983041290e+03   3.369729575080043e+04   2.890748940650221e+01  -3.761326376551888e+00  -1.540689108139189e-01   6.565546562987139e-02
2017-01-01T00:07:30.000  -1.693705381346495e+03   3.369573757304719e+04   2.956402910102782e+01  -3.761152562742931e+00  -1.575665939461126e-01   6.565246067789463e-02
2017-01-01T00:07:40.000  -1.731316021299177e+03   3.369414441979612e+04   3.022053839321292e+01  -3.760974849806098e+00  -1.610640154343491e-01   6.564938767112651e-02
2017-01-01T00:07:50.000  -1.768924864291938e+03   3.369251629367624e+04   3.087701660921005e+01  -3.760793238255577e+00  -1.645611695221801e-01   6.564624661848417e-02
2017-01-01T00:08:00.000  -1.806531871636475e+03   3.369085319737798e+04   3.153346307375906e+01  -3.760607728617207e+00  -1.680580504464637e-01   6.564303752908839e-02
2017-01-01T00:08:10.000  -1.844137004755633e+03   3.368915513364571e+04   3.218987711353926e+01  -3.760418321427677e+00  -1.715546524552430e-01   6.563976041224912e-02
2017-01-01T00:08:20.000  -1.881740224696221e+03   3.368742210529493e+04   3.284625804866553e+01  -3.760225017236412e+00  -1.750509697624509e-01   6.563641527749857e-02
2017-01-01T00:08:30.000  -1.919341492490979e+03   3.368565411520088e+04   3.350260519900660e+01  -3.760027816604321e+00  -1.785469965815988e-01   6.563300213456924e-02
2017-01-01T00:08:40.000  -1.956940769158580e+03   3.368385116629662e+04   3.415891788418512e+01  -3.759826720103559e+00  -1.820427271257896e-01   6.562952099339017e-02
2017-01-01T00:08:50.000  -1.994538015342482e+03   3.368201326159494e+04   3.481519541727354e+01  -3.759621728319992e+00  -1.855381555741714e-01   6.562597186412920e-02
2017-01-01T00:09:00.000  -2.032133191797745e+03   3.368014040416064e+04   3.547143711329173e+01  -3.759412841850077e+00  -1.890332761172041e-01   6.562235475713946e-02
